CCSDS_OMM_VERS = 2.0
CREATION_DATE  = 
ORIGINATOR     = 

OBJECT_NAME    = SL-16 R/B
OBJECT_ID      = 1998-043G
CENTER_NAME    = EARTH
REF_FRAME      = TEME
TIME_SYSTEM    = UTC
MEAN_ELEMENT_THEORY = SGP/SGP4

EPOCH          = 2026-02-16T11:19:46.210368
MEAN_MOTION    = 14.26044625
ECCENTRICITY   = .0010961
INCLINATION    = 98.8219
RA_OF_ASC_NODE = 0.6898
ARG_OF_PERICENTER = 77.1669
MEAN_ANOMALY   = 283.0735

EPHEMERIS_TYPE = 0
CLASSIFICATION_TYPE = U
NORAD_CAT_ID   = 25400
ELEMENT_SET_NO = 999
REV_AT_EPOCH   = 43596
BSTAR          = .44673E-4
MEAN_MOTION_DOT = .62E-6
MEAN_MOTION_DDOT = 0

CCSDS_OMM_VERS = 2.0
CREATION_DATE  = 
ORIGINATOR     = 

OBJECT_NAME    = SL-16 R/B
OBJECT_ID      = 1998-045B
CENTER_NAME    = EARTH
REF_FRAME      = TEME
TIME_SYSTEM    = UTC
MEAN_ELEMENT_THEORY = SGP/SGP4

EPOCH          = 2026-02-15T23:01:37.172928
MEAN_MOTION    = 14.16188552
ECCENTRICITY   = .0005689
INCLINATION    = 71.0088
RA_OF_ASC_NODE = 227.2707
ARG_OF_PERICENTER = 47.5138
MEAN_ANOMALY   = 312.6465

EPHEMERIS_TYPE = 0
CLASSIFICATION_TYPE = U
NORAD_CAT_ID   = 25407
ELEMENT_SET_NO = 999
REV_AT_EPOCH   = 42402
BSTAR          = .18317E-3
MEAN_MOTION_DOT = .315E-5
MEAN_MOTION_DDOT = 0

CCSDS_OMM_VERS = 2.0
CREATION_DATE  = 
ORIGINATOR     = 

OBJECT_NAME    = ISS (ZARYA)
OBJECT_ID      = 1998-067A
CENTER_NAME    = EARTH
REF_FRAME      = TEME
TIME_SYSTEM    = UTC
MEAN_ELEMENT_THEORY = SGP/SGP4

EPOCH          = 2026-02-16T09:48:14.959872
MEAN_MOTION    = 15.48642691
ECCENTRICITY   = .0011021
INCLINATION    = 51.6319
RA_OF_ASC_NODE = 177.5497
ARG_OF_PERICENTER = 104.3585
MEAN_ANOMALY   = 255.8628

EPHEMERIS_TYPE = 0
CLASSIFICATION_TYPE = U
NORAD_CAT_ID   = 25544
ELEMENT_SET_NO = 999
REV_AT_EPOCH   = 55303
BSTAR          = .18925E-3
MEAN_MOTION_DOT = .9877E-4
MEAN_MOTION_DDOT = 0

CCSDS_OMM_VERS = 2.0
CREATION_DATE  = 
ORIGINATOR     = 

OBJECT_NAME    = CZ-4B R/B
OBJECT_ID      = 1999-025C
CENTER_NAME    = EARTH
REF_FRAME      = TEME
TIME_SYSTEM    = UTC
MEAN_ELEMENT_THEORY = SGP/SGP4

EPOCH          = 2026-02-16T03:35:13.132320
MEAN_MOTION    = 14.18260921
ECCENTRICITY   = .00378755
INCLINATION    = 98.6670
RA_OF_ASC_NODE = 91.9365
ARG_OF_PERICENTER = 48.1954
MEAN_ANOMALY   = 19.6314

EPHEMERIS_TYPE = 0
CLASSIFICATION_TYPE = U
NORAD_CAT_ID   = 25732
ELEMENT_SET_NO = 999
REV_AT_EPOCH   = 38511
BSTAR          = .49137484E-4
MEAN_MOTION_DOT = .59E-6
MEAN_MOTION_DDOT = 0

CCSDS_OMM_VERS = 2.0
CREATION_DATE  = 
ORIGINATOR     = 

OBJECT_NAME    = OKEAN-O
OBJECT_ID      = 1999-039A
CENTER_NAME    = EARTH
REF_FRAME      = TEME
TIME_SYSTEM    = UTC
MEAN_ELEMENT_THEORY = SGP/SGP4

EPOCH          = 2026-02-16T03:46:05.184480
MEAN_MOTION    = 14.80299640
ECCENTRICITY   = .0001811
INCLINATION    = 97.9491
RA_OF_ASC_NODE = 107.2623
ARG_OF_PERICENTER = 81.6639
MEAN_ANOMALY   = 278.4778

EPHEMERIS_TYPE = 0
CLASSIFICATION_TYPE = U
NORAD_CAT_ID   = 25860
ELEMENT_SET_NO = 999
REV_AT_EPOCH   = 43120
BSTAR          = .10752338E-3
MEAN_MOTION_DOT = .767E-5
MEAN_MOTION_DDOT = 0

CCSDS_OMM_VERS = 2.0
CREATION_DATE  = 
ORIGINATOR     = 

OBJECT_NAME    = SL-16 R/B
OBJECT_ID      = 1999-039B
CENTER_NAME    = EARTH
REF_FRAME      = TEME
TIME_SYSTEM    = UTC
MEAN_ELEMENT_THEORY = SGP/SGP4

EPOCH          = 2026-02-16T03:46:22.623456
MEAN_MOTION    = 14.81700648
ECCENTRICITY   = .00140683
INCLINATION    = 98.0013
RA_OF_ASC_NODE = 106.2806
ARG_OF_PERICENTER = 332.1828
MEAN_ANOMALY   = 27.8631

EPHEMERIS_TYPE = 0
CLASSIFICATION_TYPE = U
NORAD_CAT_ID   = 25861
ELEMENT_SET_NO = 999
REV_AT_EPOCH   = 43367
BSTAR          = .88903039E-4
MEAN_MOTION_DOT = .647E-5
MEAN_MOTION_DDOT = 0

CCSDS_OMM_VERS = 2.0
CREATION_DATE  = 
ORIGINATOR     = 

OBJECT_NAME    = DELTA 2 R/B
OBJECT_ID      = 1999-041E
CENTER_NAME    = EARTH
REF_FRAME      = TEME
TIME_SYSTEM    = UTC
MEAN_ELEMENT_THEORY = SGP/SGP4

EPOCH          = 2026-02-16T08:17:14.122176
MEAN_MOTION    = 14.11756969
ECCENTRICITY   = .050224
INCLINATION    = 51.7657
RA_OF_ASC_NODE = 26.5187
ARG_OF_PERICENTER = 285.3876
MEAN_ANOMALY   = 69.2117

EPHEMERIS_TYPE = 0
CLASSIFICATION_TYPE = U
NORAD_CAT_ID   = 25876
ELEMENT_SET_NO = 999
REV_AT_EPOCH   = 36001
BSTAR          = .38268E-3
MEAN_MOTION_DOT = .2147E-4
MEAN_MOTION_DDOT = 0

CCSDS_OMM_VERS = 2.0
CREATION_DATE  = 
ORIGINATOR     = 

OBJECT_NAME    = HELIOS 1B
OBJECT_ID      = 1999-064A
CENTER_NAME    = EARTH
REF_FRAME      = TEME
TIME_SYSTEM    = UTC
MEAN_ELEMENT_THEORY = SGP/SGP4

EPOCH          = 2026-02-16T09:24:36.831744
MEAN_MOTION    = 14.87607527
ECCENTRICITY   = .0002313
INCLINATION    = 98.1722
RA_OF_ASC_NODE = 309.0073
ARG_OF_PERICENTER = 103.0598
MEAN_ANOMALY   = 257.0876

EPHEMERIS_TYPE = 0
CLASSIFICATION_TYPE = U
NORAD_CAT_ID   = 25977
ELEMENT_SET_NO = 999
REV_AT_EPOCH   = 68209
BSTAR          = .21539E-3
MEAN_MOTION_DOT = .1899E-4
MEAN_MOTION_DDOT = 0

CCSDS_OMM_VERS = 2.0
CREATION_DATE  = 
ORIGINATOR     = 

OBJECT_NAME    = TERRA
OBJECT_ID      = 1999-068A
CENTER_NAME    = EARTH
REF_FRAME      = TEME
TIME_SYSTEM    = UTC
MEAN_ELEMENT_THEORY = SGP/SGP4

EPOCH          = 2026-02-16T09:57:39.254688
MEAN_MOTION    = 14.60991164
ECCENTRICITY   = .0001191
INCLINATION    = 97.9640
RA_OF_ASC_NODE = 101.6576
ARG_OF_PERICENTER = 220.0031
MEAN_ANOMALY   = 197.3578

EPHEMERIS_TYPE = 0
CLASSIFICATION_TYPE = U
NORAD_CAT_ID   = 25994
ELEMENT_SET_NO = 999
REV_AT_EPOCH   = 39197
BSTAR          = .10765E-3
MEAN_MOTION_DOT = .483E-5
MEAN_MOTION_DDOT = 0

CCSDS_OMM_VERS = 2.0
CREATION_DATE  = 
ORIGINATOR     = 

OBJECT_NAME    = SL-16 R/B
OBJECT_ID      = 2000-006B
CENTER_NAME    = EARTH
REF_FRAME      = TEME
TIME_SYSTEM    = UTC
MEAN_ELEMENT_THEORY = SGP/SGP4

EPOCH          = 2026-02-16T11:07:48.679968
MEAN_MOTION    = 14.15818669
ECCENTRICITY   = .001804
INCLINATION    = 71.0024
RA_OF_ASC_NODE = 142.4680
ARG_OF_PERICENTER = 220.0565
MEAN_ANOMALY   = 139.9229

EPHEMERIS_TYPE = 0
CLASSIFICATION_TYPE = U
NORAD_CAT_ID   = 26070
ELEMENT_SET_NO = 999
REV_AT_EPOCH   = 34555
BSTAR          = -.64322E-4
MEAN_MOTION_DOT = -.174E-5
MEAN_MOTION_DDOT = 0

CCSDS_OMM_VERS = 2.0
CREATION_DATE  = 
ORIGINATOR     = 

OBJECT_NAME    = TITAN 4B R/B
OBJECT_ID      = 2000-047B
CENTER_NAME    = EARTH
REF_FRAME      = TEME
TIME_SYSTEM    = UTC
MEAN_ELEMENT_THEORY = SGP/SGP4

EPOCH          = 2026-02-16T11:49:10.949376
MEAN_MOTION    = 15.09374486
ECCENTRICITY   = .0037149
INCLINATION    = 67.9887
RA_OF_ASC_NODE = 100.1091
ARG_OF_PERICENTER = 61.2493
MEAN_ANOMALY   = 299.2380

EPHEMERIS_TYPE = 0
CLASSIFICATION_TYPE = U
NORAD_CAT_ID   = 26474
ELEMENT_SET_NO = 999
REV_AT_EPOCH   = 38971
BSTAR          = .22254E-3
MEAN_MOTION_DOT = .3484E-4
MEAN_MOTION_DDOT = 0

CCSDS_OMM_VERS = 2.0
CREATION_DATE  = 
ORIGINATOR     = 

OBJECT_NAME    = ENVISAT
OBJECT_ID      = 2002-009A
CENTER_NAME    = EARTH
REF_FRAME      = TEME
TIME_SYSTEM    = UTC
MEAN_ELEMENT_THEORY = SGP/SGP4

EPOCH          = 2026-02-16T11:36:53.591040
MEAN_MOTION    = 14.39028810
ECCENTRICITY   = .0001357
INCLINATION    = 98.3693
RA_OF_ASC_NODE = 1.5911
ARG_OF_PERICENTER = 86.8703
MEAN_ANOMALY   = 23.3584

EPHEMERIS_TYPE = 0
CLASSIFICATION_TYPE = U
NORAD_CAT_ID   = 27386
ELEMENT_SET_NO = 999
REV_AT_EPOCH   = 25612
BSTAR          = .55814E-4
MEAN_MOTION_DOT = .13E-5
MEAN_MOTION_DDOT = 0

